1 45185U 20012H   23253.15925867  .00010306  00000-0  70935-3 0  9993
2 45185  53.0542 178.6373 0001352  83.2672 276.8471 15.06420297197398
1 45185U 20012H   23254.08813213  .00003627  00000-0  26234-3 0  9998
2 45185  53.0542 174.4678 0001334  99.9570 260.1570 15.06385168196944
1 45185U 20012H   23254.48621721  .00016410  00000-0  11182-2 0  9992
2 45185  53.0538 172.6808 0001345 115.5753 244.5375 15.06393450197598
1 45185U 20012H   23255.08333515  .00022859  00000-0  15477-2 0  9995
2 45185  53.0540 170.0002 0001359 115.8427 244.2702 15.06420610197090
1 45185U 20012H   23255.14968080  .00021961  00000-0  14877-2 0  9999
2 45185  53.0539 169.7022 0001351 115.6552 244.4576 15.06422659197696
1 45185U 20012H   23255.74681110  .00009309  00000-0  64295-3 0  9993
2 45185  53.0542 167.0216 0001743 107.0399 253.0780 15.06402282197788
1 45185U 20012H   23255.74681110  .00009309  00000-0  64295-3 0  9993
2 45185  53.0542 167.0216 0001743 107.0399 253.0780 15.06402282197193
1 45185U 20012H   23256.01219993  .00016718  00000-0  11383-2 0  9991
2 45185  53.0552 165.8295 0001679 104.9897 255.1278 15.06408970197829
1 45185U 20012H   23257.00738095  .00027831  00000-0  18768-2 0  9992
2 45185  53.0561 161.3631 0001525 102.9603 257.1556 15.06462407197384
1 45185U 20012H   23257.14006829  .00027677  00000-0  18661-2 0  9990
2 45185  53.0554 160.7673 0001417 100.5580 259.5568 15.06470525197999
1 45185U 20012H   23257.73720149 -.00001049  00000-0 -51584-4 0  9993
2 45185  53.0546 158.0873 0001628  80.8981 279.2192 15.06381846197495
1 45185U 20012H   23257.86989730 -.00003232  00000-0 -19832-3 0  9995
2 45185  53.0544 157.4918 0001515  56.0154 304.0979 15.06369358198101
1 45185U 20012H   23258.13529201  .00028294  00000-0  19122-2 0  9993
2 45185  53.0548 156.3002 0001485  72.0566 288.0585 15.06372389198144
1 45185U 20012H   23258.13529201  .00028294  00000-0  19122-2 0  9993
2 45185  53.0548 156.3002 0001485  72.0566 288.0585 15.06372389197558
1 45185U 20012H   23259.13049459  .00026861  00000-0  18142-2 0  9995
2 45185  53.0546 151.8332 0001428  74.5360 285.5787 15.06423063198292
1 45185U 20012H   23259.72762525  .00014958  00000-0  10210-2 0  9998
2 45185  53.0545 149.1510 0002356  82.4277 277.6979 15.06398211197790
1 45185U 20012H   23260.05936162  .00020686  00000-0  14038-2 0  9993
2 45185  53.0542 147.6638 0001333  91.6200 268.4942 15.06392766197846
1 45185U 20012H   23260.12570871  .00026480  00000-0  17900-2 0  9991
2 45185  53.0540 147.3655 0001307  89.0090 271.1049 15.06399076198446
1 45185U 20012H   23261.05455043  .00031700  00000-0  21349-2 0  9990
2 45185  53.0536 143.1956 0001281  92.0915 268.0221 15.06444566198587
1 45185U 20012H   23261.05455043  .00031700  00000-0  21349-2 0  9990
2 45185  53.0536 143.1956 0001281  92.0915 268.0221 15.06444566197991
1 45185U 20012H   23261.91707664  .00031601  00000-0  21313-2 0  9995
2 45185  53.0530 139.3237 0001487 106.7633 253.3519 15.06392908198712
1 45185U 20012H   23262.04976991  .00040483  00000-0  27205-2 0  9995
2 45185  53.0528 138.7275 0001296  99.1558 260.9578 15.06408091198140
1 45185U 20012H   23263.37667425 -.00011718  00000-0 -76863-3 0  9997
2 45185  53.0536 132.7698 0001582  93.4227 266.6943 15.06421037198931
1 45185U 20012H   23263.37667425 -.00011718  00000-0 -76863-3 0  9997
2 45185  53.0536 132.7698 0001582  93.4227 266.6943 15.06421037198346
1 45185U 20012H   23263.77477149 -.00008372  00000-0 -54438-3 0  9999
2 45185  53.0528 130.9820 0002009 102.8723 257.2491 15.06358215198403
1 45185U 20012H   23263.90747240  .00003146  00000-0  23037-3 0  9999
2 45185  53.0532 130.3877 0001601  98.9358 261.1812 15.06342857199014
1 45185U 20012H   23264.04017161  .00011617  00000-0  79856-3 0  9999
2 45185  53.0541 129.7914 0001949  94.3456 265.7756 15.06349045199037
1 45185U 20012H   23264.04017161  .00011617  00000-0  79856-3 0  9999
2 45185  53.0541 129.7914 0001949  94.3456 265.7756 15.06349045198441
1 45185U 20012H   23264.90270035  .00020772  00000-0  14100-2 0  9997
2 45185  53.0541 125.9201 0001866  99.7348 260.3852 15.06380896199162
1 45185U 20012H   23265.03539516  .00020917  00000-0  14195-2 0  9999
2 45185  53.0543 125.3244 0001856  99.6204 260.4995 15.06386403199185
1 45185U 20012H   23265.03539516  .00020917  00000-0  14195-2 0  9999
2 45185  53.0543 125.3244 0001856  99.6204 260.4995 15.06386403198599
1 45185U 20012H   23265.89790187  .00010191  00000-0  70192-3 0  9999
2 45185  53.0543 121.4508 0001845 102.8220 257.2975 15.06406452199312
1 45185U 20012H   23265.89790187  .00010191  00000-0  70192-3 0  9999
2 45185  53.0543 121.4508 0001845 102.8220 257.2975 15.06406452198726
1 45185U 20012H   23267.02577818  .00014297  00000-0  97569-3 0  9998
2 45185  53.0541 116.3881 0001740 103.9952 256.1230 15.06439247199483
1 45185U 20012H   23267.02577818  .00014297  00000-0  97569-3 0  9998
2 45185  53.0541 116.3881 0001740 103.9952 256.1230 15.06439247198897
1 45185U 20012H   23267.75559836  .00002467  00000-0  18442-3 0  9997
2 45185  53.0541 113.1122 0001712  98.8086 261.3097 15.06404947199001
1 45185U 20012H   23267.88828794  .00001337  00000-0  10862-3 0  9996
2 45185  53.0540 112.5165 0002039 145.6227 214.4894 15.06402665199617
1 45185U 20012H   23268.28637488  .00018984  00000-0  12895-2 0  9992
2 45185  53.0539 110.7299 0001589 100.1314 259.9854 15.06411506199675
1 45185U 20012H   23268.81714398  .00018198  00000-0  12366-2 0  9997
2 45185  53.0540 108.3470 0001576  97.9330 262.1838 15.06424205199160
1 45185U 20012H   23268.88348903  .00020428  00000-0  13852-2 0  9999
2 45185  53.0540 108.0493 0001683  96.3662 263.7519 15.06430252199760
1 45185U 20012H   23269.54696508  .00003572  00000-0  25861-3 0  9995
2 45185  53.0541 105.0706 0001843  95.8311 264.2888 15.06399305199867
1 45185U 20012H   23269.74600926  .00004490  00000-0  32023-3 0  9994
2 45185  53.0542 104.1755 0001116  81.5238 278.5877 15.06391261199303
1 45185U 20012H   23269.81235468  .00005165  00000-0  36543-3 0  9998
2 45185  53.0549 103.8770 0001520 118.5546 241.5596 15.06393353199903
1 45185U 20012H   23270.54217735  .00010573  00000-0  72774-3 0  9992
2 45185  53.0545 100.6001 0001183  97.2649 262.8475 15.06395535200014
1 45185U 20012H   23270.80756211  .00014486  00000-0  98915-3 0  9990
2 45185  53.0546  99.4094 0001284  95.4315 264.6820 15.06409280199467
1 45185U 20012H   23271.53737711  .00000703  00000-0  66066-4 0  9995
2 45185  53.0541  96.1338 0001321  96.0645 264.0495 15.06400499199579
1 45185U 20012H   23271.80276654  .00003082  00000-0  22574-3 0  9997
2 45185  53.0541  94.9431 0001242  87.2248 272.8884 15.06398179200205
1 45185U 20012H   23272.53257051  .00004008  00000-0  28769-3 0  9999
2 45185  53.0545  91.6666 0001265  99.9585 260.1547 15.06415158200317
1 45185U 20012H   23272.73160696  .00005629  00000-0  39629-3 0  9996
2 45185  53.0541  90.7714 0001273 104.5560 255.5570 15.06421194199758
1 45185U 20012H   23272.86429886  .00005452  00000-0  38441-3 0  9994
2 45185  53.0542  90.1765 0001255 102.9331 257.1798 15.06422291200366
1 45185U 20012H   23273.72680627 -.00000540  00000-0 -17295-4 0  9992
2 45185  53.0532  86.2972 0002405 152.6294 207.4822 15.06407157199906
1 45185U 20012H   23273.85950724 -.00002065  00000-0 -11980-3 0  9992
2 45185  53.0542  85.7105 0001088  85.6480 274.4633 15.06397874199927
1 45185U 20012H   23274.45662779  .00000050  00000-0  22267-4 0  9990
2 45185  53.0537  83.0297 0001035  88.8475 271.2633 15.06402304200603
1 45185U 20012H   23274.78836211  .00001701  00000-0  13305-3 0  9996
2 45185  53.0542  81.5403 0001102  83.4910 276.6205 15.06403505200654
1 45185U 20012H   23275.45183670  .00002036  00000-0  15555-3 0  9996
2 45185  53.0542  78.5615 0001180  81.7186 278.3936 15.06394204200168
1 45185U 20012H   23275.71722415  .00002574  00000-0  19166-3 0  9990
2 45185  53.0545  77.3702 0001177  81.7546 278.3576 15.06396657200794
1 45185U 20012H   23276.57972950  .00004639  00000-0  33003-3 0  9996
2 45185  53.0541  73.4983 0001178  78.8529 281.2593 15.06406100200929
1 45185U 20012H   23276.64607525  .00004503  00000-0  32091-3 0  9993
2 45185  53.0543  73.2002 0001198  80.7023 279.4101 15.06407648200937
1 45185U 20012H   23276.64607525  .00004503  00000-0  32091-3 0  9993
2 45185  53.0543  73.2002 0001198  80.7023 279.4101 15.06407648200342
1 45185U 20012H   23277.57493024  .00001222  00000-0  10092-3 0  9995
2 45185  53.0548  69.0302 0001349  82.1538 277.9604 15.06401455201070
1 45185U 20012H   23277.70762305  .00001672  00000-0  13110-3 0  9994
2 45185  53.0550  68.4342 0001313  86.0911 274.0228 15.06402561200505
1 45185U 20012H   23277.84031572  .00001370  00000-0  11082-3 0  9995
2 45185  53.0551  67.8385 0001320  85.7460 274.3680 15.06403395201118
1 45185U 20012H   23278.43742611  .00002715  00000-0  20103-3 0  9992
2 45185  53.0554  65.1583 0001315  86.5234 273.5906 15.06416672200612
1 45185U 20012H   23278.57011720  .00003059  00000-0  22408-3 0  9999
2 45185  53.0554  64.5627 0001316  86.5266 273.5874 15.06418840201221
1 45185U 20012H   23278.70280713  .00004032  00000-0  28923-3 0  9994
2 45185  53.0555  63.9674 0001280  85.3632 274.7503 15.06423382201242
1 45185U 20012H   23279.43263497 -.00000794  00000-0 -34468-4 0  9990
2 45185  53.0553  60.6916 0000768  62.3903 297.7164 15.06397175200763
1 45185U 20012H   23279.56532681 -.00002415  00000-0 -14330-3 0  9995
2 45185  53.0556  60.0957 0001060  90.5470 269.5641 15.06395326201374
1 45185U 20012H   23279.69802210 -.00003310  00000-0 -20345-3 0  9995
2 45185  53.0553  59.5003 0001035  91.4510 268.6597 15.06391298201399
1 45185U 20012H   23280.56053178  .00003352  00000-0  24381-3 0  9992
2 45185  53.0551  55.6277 0001042  95.8651 264.2457 15.06399049201523
1 45185U 20012H   23280.75957122  .00006926  00000-0  48333-3 0  9998
2 45185  53.0553  54.7348 0001083  97.2027 262.9085 15.06405329201556
1 45185U 20012H   23280.75957122  .00006926  00000-0  48333-3 0  9998
2 45185  53.0553  54.7348 0001083  97.2027 262.9085 15.06405329200960
